NORAD_CAT_ID,OBJECT_NAME,OBJECT_TYPE,EPOCH,MEAN_MOTION,ECCENTRICITY,INCLINATION,RA_OF_ASC_NODE,ARG_OF_PERICENTER,MEAN_ANOMALY,BSTAR,MEAN_MOTION_DOT,MEAN_MOTION_DDOT,TLE_LINE0,TLE_LINE1,TLE_LINE2,SEMIMAJOR_AXIS,PERIOD,APOGEE,PERIGEE,DECAYED
53843.0,STARLINK-4769,PAYLOAD,2023-01-29 06:58:11,15.08850027,0.000124,53.2199,351.2049,97.0525,263.0608,3.8904e-05,3.31e-06,0.0,0 STARLINK-4769,1 53843U 22114AB  23029.29040876  .00000331  00000-0  38904-4 0  9990,2 53843  53.2199 351.2049 0001240  97.0525 263.0608 15.08850027 21568,6917.85,95.437,540.573,538.857,0.0
53843.0,STARLINK-4769,PAYLOAD,2023-01-30 03:38:12,15.08845645,0.0001243,53.2199,347.3406,94.626,265.4874,3.8628e-05,3.27e-06,0.0,0 STARLINK-4769,1 53843U 22114AB  23030.15153122  .00000327  00000-0  38628-4 0  9994,2 53843  53.2199 347.3406 0001243  94.6260 265.4874 15.08845645 21159,6917.863,95.437,540.588,538.868,0.0
53843.0,STARLINK-4769,PAYLOAD,2023-01-31 06:39:44,15.08850312,0.0001203,53.22,342.286,88.6741,271.4389,0.00012208,1.656e-05,0.0,0 STARLINK-4769,1 53843U 22114AB  23031.27760196  .00001656  00000-0  12208-3 0  9994,2 53843  53.2200 342.2860 0001203  88.6741 271.4389 15.08850312 21327,6917.849,95.437,540.546,538.882,0.0
53843.0,STARLINK-4769,PAYLOAD,2023-02-01 06:30:32,15.08847277,0.0001106,53.2192,337.8248,90.3996,269.7122,3.7741e-05,3.13e-06,0.0,0 STARLINK-4769,1 53843U 22114AB  23032.27120407  .00000313  00000-0  37741-4 0  9999,2 53843  53.2192 337.8248 0001106  90.3996 269.7122 15.08847277 21478,6917.858,95.437,540.488,538.958,0.0
53843.0,STARLINK-4769,PAYLOAD,2023-02-02 03:10:34,15.08833064,0.000106,53.2189,333.9619,90.6737,269.4377,-0.00010649,-1.982e-05,0.0,0 STARLINK-4769,1 53843U 22114AB  23033.13234001 -.00001982  00000-0 -10649-3 0  9993,2 53843  53.2189 333.9619 0001060  90.6737 269.4377 15.08833064 21601,6917.902,95.438,540.5,539.033,0.0
53843.0,STARLINK-4769,PAYLOAD,2023-02-02 22:15:11,15.0884428,0.0001134,53.2192,330.393,93.2936,266.8186,3.8564e-05,3.26e-06,0.0,0 STARLINK-4769,1 53843U 22114AB  23033.92721186  .00000326  00000-0  38564-4 0  9991,2 53843  53.2192 330.3930 0001134  93.2936 266.8186 15.08844280 21728,6917.867,95.437,540.517,538.948,0.0
53843.0,STARLINK-4769,PAYLOAD,2023-02-03 04:36:42,15.08855593,0.0001108,53.2189,329.2042,94.509,265.6028,0.00013809,1.911e-05,0.0,0 STARLINK-4769,1 53843U 22114AB  23034.19216193  .00001911  00000-0  13809-3 0  9993,2 53843  53.2189 329.2042 0001108  94.5090 265.6028 15.08855593 21766,6917.833,95.437,540.464,538.931,0.0
53843.0,STARLINK-4769,PAYLOAD,2023-02-03 18:55:12,15.088309,0.0001197,53.2187,326.5282,89.1768,270.9361,0.00015345,2.155e-05,0.0,0 STARLINK-4769,1 53843U 22114AB  23034.78834015  .00002155  00000-0  15345-3 0  9995,2 53843  53.2187 326.5282 0001197  89.1768 270.9361 15.08830900 21854,6917.908,95.438,540.601,538.945,0.0
53843.0,STARLINK-4769,PAYLOAD,2023-02-04 06:02:54,15.08843227,0.0001216,53.2181,324.4464,89.5939,270.5193,0.0001802,2.581e-05,0.0,0 STARLINK-4769,1 53843U 22114AB  23035.25201486  .00002581  00000-0  18020-3 0  9994,2 53843  53.2181 324.4464 0001216  89.5939 270.5193 15.08843227 21926,6917.871,95.437,540.577,538.894,0.0
53843.0,STARLINK-4769,PAYLOAD,2023-02-05 04:18:17,15.08846349,0.0001411,53.2195,320.2814,86.2688,273.8465,1.8301e-05,3e-08,0.0,0 STARLINK-4769,1 53843U 22114AB  23036.17937303  .00000003  00000-0  18301-4 0  9990,2 53843  53.2195 320.2814 0001411  86.2688 273.8465 15.08846349 22608,6917.861,95.437,540.702,538.75,0.0
53843.0,STARLINK-4769,PAYLOAD,2023-02-05 18:36:46,15.08833942,0.0001272,53.2185,317.6068,95.8651,264.2487,-2.3482e-05,-6.61e-06,0.0,0 STARLINK-4769,1 53843U 22114AB  23036.77554146 -.00000661  00000-0 -23482-4 0  9994,2 53843  53.2185 317.6068 0001272  95.8651 264.2487 15.08833942 22152,6917.899,95.438,540.644,538.884,0.0
53843.0,STARLINK-4769,PAYLOAD,2023-02-06 04:09:05,15.08841768,0.00012,53.2181,315.8226,92.7038,267.4092,0.00011794,1.59e-05,0.0,0 STARLINK-4769,1 53843U 22114AB  23037.17297909  .00001590  00000-0  11794-3 0  9992,2 53843  53.2181 315.8226 0001200  92.7038 267.4092 15.08841768 22219,6917.875,95.437,540.57,538.91,0.0
53843.0,STARLINK-4769,PAYLOAD,2023-02-06 21:38:19,15.08852801,0.0001046,53.2184,312.5542,79.9476,280.1634,0.00025793,3.821e-05,0.0,0 STARLINK-4769,1 53843U 22114AB  23037.90161664  .00003821  00000-0  25793-3 0  9994,2 53843  53.2184 312.5542 0001046  79.9476 280.1634 15.08852801 22863,6917.841,95.437,540.43,538.983,0.0
53843.0,STARLINK-4769,PAYLOAD,2023-02-07 03:59:51,15.08864409,0.000107,53.2171,311.3618,92.5843,267.5272,0.00055786,8.607e-05,0.0,0 STARLINK-4769,1 53843U 22114AB  23038.16656960  .00008607  00000-0  55786-3 0  9993,2 53843  53.2171 311.3618 0001070  92.5843 267.5272 15.08864409 22365,6917.806,95.436,540.411,538.931,0.0
53843.0,STARLINK-4769,PAYLOAD,2023-02-07 13:32:10,15.08848917,5.24e-05,53.2182,309.5786,71.1888,288.9161,0.00022967,3.37e-05,0.0,0 STARLINK-4769,1 53843U 22114AB  23038.56401362  .00003370  00000-0  22967-3 0  9998,2 53843  53.2182 309.5786 0000524  71.1888 288.9161 15.08848917 22424,6917.853,95.437,540.081,539.356,0.0
53843.0,STARLINK-4769,PAYLOAD,2023-02-07 21:29:06,15.08844272,8.59e-05,53.2183,308.0941,98.904,261.205,1.2994e-06,-2.67e-06,0.0,0 STARLINK-4769,1 53843U 22114AB  23038.89521381 -.00000267  00000-0  12994-5 0  9992,2 53843  53.2183 308.0941 0000859  98.9040 261.2050 15.08844272 23017,6917.867,95.437,540.327,539.138,0.0
53843.0,STARLINK-4769,PAYLOAD,2023-02-08 13:22:57,15.0884564,7.95e-05,53.2183,305.12,102.0276,258.0805,0.00010523,1.388e-05,0.0,0 STARLINK-4769,1 53843U 22114AB  23039.55761240  .00001388  00000-0  10523-3 0  9994,2 53843  53.2183 305.1200 0000795 102.0276 258.0805 15.08845640 22572,6917.863,95.437,540.278,539.178,0.0
53843.0,STARLINK-4769,PAYLOAD,2023-02-08 18:09:07,15.08827482,0.0001241,53.2173,304.2265,113.2767,246.8356,0.00012824,1.753e-05,0.0,0 STARLINK-4769,1 53843U 22114AB  23039.75633682  .00001753  00000-0  12824-3 0  9996,2 53843  53.2173 304.2265 0001241 113.2767 246.8356 15.08827482 22602,6917.919,95.438,540.642,538.925,0.0
53843.0,STARLINK-4769,PAYLOAD,2023-02-08 21:19:53,15.08837764,0.0001164,53.2174,303.6319,110.3531,249.7586,0.00063231,9.789e-05,0.0,0 STARLINK-4769,1 53843U 22114AB  23039.88881722  .00009789  00000-0  63231-3 0  9995,2 53843  53.2174 303.6319 0001164 110.3531 249.7586 15.08837764 23160,6917.887,95.438,540.557,538.947,0.0
53843.0,STARLINK-4769,PAYLOAD,2023-02-09 02:06:03,15.0884844,0.0001077,53.2175,302.7407,88.3809,271.7306,0.0029641,0.00047213,0.0,0 STARLINK-4769,1 53843U 22114AB  23040.08753981  .00047213  00000-0  29641-2 0  9994,2 53843  53.2175 302.7407 0001077  88.3809 271.7306 15.08848440 22655,6917.855,95.437,540.465,538.975,0.0
53843.0,STARLINK-4769,PAYLOAD,2023-02-09 19:35:18,15.08862278,8.93e-05,53.2171,299.4702,156.4557,203.6476,0.0023404,0.00037179,0.0,0 STARLINK-4769,1 53843U 22114AB  23040.81618058  .00037179  00000-0  23404-2 0  9991,2 53843  53.2171 299.4702 0000893 156.4557 203.6476 15.08862278 22762,6917.812,95.436,540.295,539.06,0.0
53843.0,STARLINK-4769,PAYLOAD,2023-02-10 00:21:27,15.08854781,0.0001113,53.2169,298.5778,83.015,277.0969,0.0016524,0.00026118,0.0,0 STARLINK-4769,1 53843U 22114AB  23041.01490455  .00026118  00000-0  16524-2 0  9999,2 53843  53.2169 298.5778 0001113  83.0150 277.0969 15.08854781 22797,6917.835,95.437,540.47,538.93,0.0
53843.0,STARLINK-4769,PAYLOAD,2023-02-10 01:56:50,15.08858123,0.0001142,53.2175,298.2798,67.675,292.4363,0.0016744,0.00026474,0.0,0 STARLINK-4769,1 53843U 22114AB  23041.08114406  .00026474  00000-0  16744-2 0  9994,2 53843  53.2175 298.2798 0001142  67.6750 292.4363 15.08858123 23344,6917.825,95.436,540.48,538.9,0.0
53843.0,STARLINK-4769,PAYLOAD,2023-02-11 00:12:14,15.08862404,0.0001331,53.2168,294.1158,72.8866,287.2272,0.0012975,0.00020435,0.0,0 STARLINK-4769,1 53843U 22114AB  23042.00850160  .00020435  00000-0  12975-2 0  9994,2 53843  53.2168 294.1158 0001331  72.8866 287.2272 15.08862404 22940,6917.812,95.436,540.598,538.756,0.0
53843.0,STARLINK-4769,PAYLOAD,2023-02-11 17:41:28,15.08845213,0.0001137,53.2168,290.8452,113.7669,246.3443,0.00068572,0.00010644,0.0,0 STARLINK-4769,1 53843U 22114AB  23042.73714106  .00010644  00000-0  68572-3 0  9999,2 53843  53.2168 290.8452 0001137 113.7669 246.3443 15.08845213 23597,6917.864,95.437,540.516,538.943,0.0
53843.0,STARLINK-4769,PAYLOAD,2023-02-11 22:27:38,15.0884639,0.0001123,53.2168,289.9531,105.1671,254.9446,0.00080148,0.00012493,0.0,0 STARLINK-4769,1 53843U 22114AB  23042.93586232  .00012493  00000-0  80148-3 0  9995,2 53843  53.2168 289.9531 0001123 105.1671 254.9446 15.08846390 23086,6917.861,95.437,540.503,538.949,0.0
53843.0,STARLINK-4769,PAYLOAD,2023-02-12 09:35:21,15.08832412,0.0001659,53.2182,287.8716,86.2687,273.8495,-3.3204e-05,-8.16e-06,0.0,0 STARLINK-4769,1 53843U 22114AB  23043.39955119 -.00000816  00000-0 -33204-4 0  9990,2 53843  53.2182 287.8716 0001659  86.2687 273.8495 15.08832412 23156,6917.904,95.438,540.916,538.621,0.0
53843.0,STARLINK-4769,PAYLOAD,2023-02-13 09:26:08,15.08831321,0.0001153,53.2172,283.4105,89.3947,270.7178,0.0005344,8.225e-05,0.0,0 STARLINK-4769,1 53843U 22114AB  23044.39315858  .00008225  00000-0  53440-3 0  9994,2 53843  53.2172 283.4105 0001153  89.3947 270.7178 15.08831321 23849,6917.907,95.438,540.57,538.974,0.0
53843.0,STARLINK-4769,PAYLOAD,2023-02-14 01:19:59,15.08852214,0.0001,53.2166,280.4371,80.8803,279.2302,0.00076157,0.00011857,0.0,0 STARLINK-4769,1 53843U 22114AB  23045.05555454  .00011857  00000-0  76157-3 0  9991,2 53843  53.2166 280.4371 0001000  80.8803 279.2302 15.08852214 23401,6917.843,95.437,540.4,539.016,0.0
53843.0,STARLINK-4769,PAYLOAD,2023-02-14 22:00:00,15.08847343,0.0001,53.2162,276.5702,78.2358,281.8747,0.00022919,3.362e-05,0.0,0 STARLINK-4769,1 53843U 22114AB  23045.91667295  .00003362  00000-0  22919-3 0  9992,2 53843  53.2162 276.5702 0001000  78.2358 281.8747 15.08847343 23530,6917.858,95.437,540.415,539.031,0.0
